NOAA 18                 
1 28654U 05018A   21323.13652790  .00000099  00000-0  77508-4 0  9992
2 28654  98.9773  28.4849 0014023 202.0699 157.9870 14.12658317850371
